OBJECT_NAME,OBJECT_ID,EPOCH,MEAN_MOTION,ECCENTRICITY,INCLINATION,RA_OF_ASC_NODE,ARG_OF_PERICENTER,MEAN_ANOMALY,EPHEMERIS_TYPE,CLASSIFICATION_TYPE,NORAD_CAT_ID,ELEMENT_SET_NO,REV_AT_EPOCH,BSTAR,MEAN_MOTION_DOT,MEAN_MOTION_DDOT
STARLINK-11741 [DTC],2025-107A,2026-05-13T22:28:16.180896,15.70948850,.00007732,42.9983,65.4877,235.8010,124.2785,0,U,64064,999,5755,.11759877E-2,.153976E-2,0
STARLINK-11709 [DTC],2025-107B,2026-05-14T02:32:22.142112,15.70981794,.00014955,43.0005,64.1661,246.0675,114.0036,0,U,64065,999,5758,.13915087E-2,.183178E-2,0
STARLINK-11737 [DTC],2025-107C,2026-05-14T02:09:25.834176,15.70976208,.00016386,42.9998,64.0361,228.2704,131.8024,0,U,64066,999,5758,.13793339E-2,.181493E-2,0
STARLINK-11726 [DTC],2025-107D,2026-05-14T01:54:08.471808,15.70956837,.00007108,42.9955,63.9521,190.4006,169.6847,0,U,64067,999,5758,.11492481E-2,.150451E-2,0
STARLINK-11700 [DTC],2025-107E,2026-05-13T20:42:43.951680,15.70951673,.00009013,42.9986,65.7896,156.4181,203.6728,0,U,64068,999,5754,.13403118E-2,.176046E-2,0
STARLINK-11649 [DTC],2025-107F,2026-05-13T04:17:12.033600,15.70876970,.00022411,43.0013,70.1259,269.6229,90.4382,0,U,64069,999,5743,.14073544E-2,.18449E-2,0
STARLINK-11713 [DTC],2025-107G,2026-05-13T20:18:28.826208,15.70969243,.00018426,43.0000,65.6534,227.0714,132.9999,0,U,64070,999,5754,.17415074E-2,.230569E-2,0
STARLINK-11719 [DTC],2025-107H,2026-05-13T22:12:58.502304,15.70988125,.0002568,43.0005,65.3985,234.6014,125.4614,0,U,64071,999,5755,.18612E-2,.247148E-2,0
STARLINK-11733 [DTC],2025-107J,2026-05-14T02:01:48.273600,15.71090450,.0002182,43.0003,63.9923,240.2950,119.7701,0,U,64072,999,5758,.20877051E-2,.279569E-2,0
STARLINK-11729 [DTC],2025-107K,2026-05-13T22:20:37.255200,15.70941635,.0002043,43.0003,65.4408,245.0805,114.9851,0,U,64073,999,5755,.12139E-2,.159003E-2,0
STARLINK-11730 [DTC],2025-107L,2026-05-14T02:40:00.841440,15.70847541,.00024062,43.0006,64.2021,282.9754,77.0845,0,U,64074,999,5758,.10542926E-2,.137136E-2,0
STARLINK-11723 [DTC],2025-107M,2026-05-14T05:20:11.060736,15.70955758,.00026749,43.0023,63.3121,259.7189,100.3377,0,U,64075,999,5760,.10363914E-2,.13539E-2,0
STARLINK-11715 [DTC],2025-107N,2026-05-14T04:49:36.228864,15.70948146,.00037283,43.0028,63.1393,261.2294,98.8152,0,U,64076,999,5760,.1057119E-2,.138129E-2,0
STARLINK-34201,2025-107P,2026-05-13T20:33:49.884768,15.27584613,.00015897,42.9992,193.8034,270.7724,89.2945,0,U,64077,999,5499,.31995775E-3,.8554E-4,0
STARLINK-34190,2025-107Q,2026-05-13T08:57:43.855200,15.27593461,.00015025,42.9980,196.1913,260.2818,99.7864,0,U,64078,999,5601,.4116698E-3,.11088E-3,0
STARLINK-34168,2025-107R,2026-05-13T21:05:04.644672,15.27605163,.0001651,43.0051,193.1062,293.3793,66.6885,0,U,64079,999,5609,.34437E-3,.9233E-4,0
STARLINK-34098,2025-107S,2026-05-12T21:43:49.241856,15.27594524,.0002721,43.0031,198.6978,268.5973,91.4567,0,U,64080,999,5594,.35125E-3,.942E-4,0
STARLINK-34180,2025-107T,2026-05-14T05:38:25.312416,15.27593130,.00020681,42.9966,191.4760,284.0009,76.0612,0,U,64081,999,5614,.68950148E-3,.18768E-3,0
STARLINK-34171,2025-107U,2026-05-13T20:59:31.219296,15.27593256,.0001484,43.0011,193.0704,269.4547,90.6135,0,U,64082,999,5609,.43394E-3,.11703E-3,0
STARLINK-34126,2025-107V,2026-05-14T05:53:13.300512,15.27586191,.00018078,43.0001,191.5555,264.8361,95.2284,0,U,64083,999,5505,.29788074E-3,.7945E-4,0
STARLINK-34157,2025-107W,2026-05-13T05:30:54.821952,15.27583584,.0001579,43.0026,196.8298,270.3984,89.6687,0,U,64084,999,5597,.22532E-3,.5944E-4,0
STARLINK-34140,2025-107X,2026-05-13T12:17:08.579904,15.27585522,.00017108,42.9995,195.5077,266.9284,93.1372,0,U,64085,999,5601,.34113286E-3,.9138E-4,0
STARLINK-34132,2025-107Y,2026-05-14T05:47:40.308864,15.27576287,.00013634,42.9992,191.5248,258.7805,101.2893,0,U,64086,999,5611,.35255679E-3,.9451E-4,0
