STARLINK-11649 [DTC]
1 64069U 25107F   26133.17861150  .00184490  00000+0  14074-2 0  9997
2 64069  43.0013  70.1259 0002241 269.6229  90.4382 15.70876970 57432
STARLINK-11700 [DTC]
1 64068U 25107E   26133.86300870  .00176046  00000+0  13403-2 0  9992
2 64068  42.9986  65.7896 0000901 156.4181 203.6728 15.70951673 57544
STARLINK-11709 [DTC]
1 64065U 25107B   26134.10581183  .00183178  00000+0  13915-2 0  9997
2 64065  43.0005  64.1661 0001495 246.0675 114.0036 15.70981794 57589
STARLINK-11713 [DTC]
1 64070U 25107G   26133.84616697  .00230569  00000+0  17415-2 0  9998
2 64070  43.0000  65.6534 0001843 227.0714 132.9999 15.70969243 57543
STARLINK-11715 [DTC]
1 64076U 25107N   26134.20111376  .00138129  00000+0  10571-2 0  9994
2 64076  43.0028  63.1393 0003728 261.2294  98.8152 15.70948146 57609
STARLINK-11719 [DTC]
1 64071U 25107H   26133.92567711  .00247148  00000+0  18612-2 0  9991
2 64071  43.0005  65.3985 0002568 234.6014 125.4614 15.70988125 57550
STARLINK-11723 [DTC]
1 64075U 25107M   26134.22235024  .00135390  00000+0  10364-2 0  9999
2 64075  43.0023  63.3121 0002674 259.7189 100.3377 15.70955758 57603
STARLINK-11726 [DTC]
1 64067U 25107D   26134.07926472  .00150451  00000+0  11492-2 0  9995
2 64067  42.9955  63.9521 0000710 190.4006 169.6847 15.70956837 57580
STARLINK-11729 [DTC]
1 64073U 25107K   26133.93098675  .00159003  00000+0  12139-2 0  9992
2 64073  43.0003  65.4408 0002043 245.0805 114.9851 15.70941635 57554
STARLINK-11730 [DTC]
1 64074U 25107L   26134.11112085  .00137136  00000+0  10543-2 0  9996
2 64074  43.0006  64.2021 0002406 282.9754  77.0845 15.70847541 57588
STARLINK-11733 [DTC]
1 64072U 25107J   26134.08458650  .00279569  00000+0  20877-2 0  9999
2 64072  43.0003  63.9923 0002182 240.2950 119.7701 15.71090450 57581
STARLINK-11737 [DTC]
1 64066U 25107C   26134.08988234  .00181493  00000+0  13793-2 0  9995
2 64066  42.9998  64.0361 0001638 228.2704 131.8024 15.70976208 57587
STARLINK-11741 [DTC]
1 64064U 25107A   26133.93629839  .00153976  00000+0  11760-2 0  9996
2 64064  42.9983  65.4877 0000773 235.8010 124.2785 15.70948850 57558
STARLINK-34098
1 64080U 25107S   26132.90543104  .00009420  00000+0  35125-3 0  9996
2 64080  43.0031 198.6978 0002721 268.5973  91.4567 15.27594524 55940
STARLINK-34126
1 64083U 25107V   26134.24529283  .00007945  00000+0  29788-3 0  9998
2 64083  43.0001 191.5555 0001807 264.8361  95.2284 15.27586191 55058
STARLINK-34132
1 64086U 25107Y   26134.24143876  .00009451  00000+0  35256-3 0  9992
2 64086  42.9992 191.5248 0001363 258.7805 101.2893 15.27576287 56116
STARLINK-34140
1 64085U 25107X   26133.51190486  .00009138  00000+0  34113-3 0  9992
2 64085  42.9995 195.5077 0001710 266.9284  93.1372 15.27585522 56012
STARLINK-34157
1 64084U 25107W   26133.22980118  .00005944  00000+0  22532-3 0  9991
2 64084  43.0026 196.8298 0001579 270.3984  89.6687 15.27583584 55975
STARLINK-34168
1 64079U 25107R   26133.87852598  .00009233  00000+0  34437-3 0  9998
2 64079  43.0051 193.1062 0001651 293.3793  66.6885 15.27605163 56097
STARLINK-34171
1 64082U 25107U   26133.87466689  .00011703  00000+0  43394-3 0  9991
2 64082  43.0011 193.0704 0001484 269.4547  90.6135 15.27593256 56098
STARLINK-34180
1 64081U 25107T   26134.23501519  .00018768  00000+0  68950-3 0  9996
2 64081  42.9966 191.4760 0002068 284.0009  76.0612 15.27593130 56148
STARLINK-34190
1 64078U 25107Q   26133.37342425  .00011088  00000+0  41167-3 0  9994
2 64078  42.9980 196.1913 0001502 260.2818  99.7864 15.27593461 56012
STARLINK-34201
1 64077U 25107P   26133.85682737  .00008554  00000+0  31996-3 0  9992
2 64077  42.9992 193.8034 0001589 270.7724  89.2945 15.27584613 54997
